{"type":"FeatureCollection","features":[{"type":"Feature","geometry":{"type":"MultiLineString","coordinates":[[[9.7707,53.616],[9.7685,53.6226],[9.7713,53.6314],[9.77,53.6276],[9.7637,53.6274],[9.7635,53.6249],[9.76,53.6243],[9.7575,53.6171],[9.7536,53.613],[9.7592,53.611],[9.7554,53.6027],[9.7483,53.6038],[9.7438,53.5982],[9.7442,53.595],[9.7465,53.5926],[9.7456,53.589],[9.7428,53.5893],[9.7345,53.5825],[9.7374,53.5799],[9.7403,53.5813],[9.7425,53.578],[9.7375,53.5777],[9.736,53.5763],[9.7369,53.5752],[9.7347,53.5685],[9.7353,53.5665],[9.7301,53.5576],[9.7744,53.5543],[9.7723,53.5435],[9.7656,53.5411],[9.7713,53.5311],[9.7699,53.5295],[9.7742,53.5275],[9.7745,53.5248],[9.778,53.5251],[9.7813,53.5187],[9.7711,53.5219],[9.769,53.5199],[9.7636,53.5082],[9.7688,53.5053],[9.7815,53.5016],[9.7811,53.4998],[9.7846,53.5],[9.782,53.4923],[9.7928,53.4945],[9.8028,53.4938],[9.7985,53.4751],[9.8005,53.4754],[9.7998,53.4694],[9.8032,53.4693],[9.8035,53.4668],[9.8061,53.4674],[9.8075,53.4628],[9.8131,53.4625],[9.8365,53.4509],[9.8589,53.4341],[9.8618,53.4296],[9.8647,53.4306],[9.8647,53.432],[9.86,53.4363],[9.8607,53.4384],[9.8634,53.4404],[9.8669,53.4401],[9.8671,53.4434],[9.8689,53.4446],[9.8733,53.4422],[9.886,53.4501],[9.8887,53.4506],[9.8942,53.4558],[9.8968,53.4539],[9.9002,53.454],[9.898,53.455],[9.8988,53.458],[9.9011,53.4562],[9.9043,53.4567],[9.9097,53.4524],[9.9113,53.4496],[9.9172,53.4466],[9.9182,53.4448],[9.9169,53.4423],[9.919,53.4427],[9.9197,53.4395],[9.9229,53.4364],[9.9141,53.43],[9.9163,53.4248],[9.9107,53.4214],[9.9067,53.416],[9.9114,53.4151],[9.9108,53.4141],[9.9116,53.415],[9.9165,53.4141],[9.9247,53.4194],[9.9295,53.4201],[9.9299,53.4215],[9.9421,53.421],[9.947,53.4269],[9.9429,53.4283],[9.9438,53.4295],[9.9603,53.4266],[9.9601,53.425],[9.9683,53.4237],[9.9713,53.421],[9.9745,53.4206],[9.9759,53.4219],[9.9748,53.4198],[9.9765,53.4138],[9.9833,53.4146],[9.9826,53.4157],[9.987,53.4174],[9.9884,53.4206],[9.9928,53.4197],[9.9959,53.4259],[10.0007,53.4246],[10.0093,53.4295],[10.0174,53.4288],[10.0188,53.4293],[10.0178,53.4302],[10.0213,53.4306],[10.0292,53.4353],[10.0257,53.4383],[10.0146,53.442],[10.0222,53.4476],[10.0239,53.4458],[10.0323,53.4441],[10.0352,53.4469],[10.0366,53.446],[10.0453,53.4464],[10.0492,53.4498],[10.0412,53.4516],[10.0441,53.4549],[10.042,53.4566],[10.0436,53.459],[10.0516,53.4639],[10.0671,53.4559],[10.079,53.4539],[10.0833,53.4517],[10.0954,53.4421],[10.1043,53.4299],[10.1086,53.4268],[10.1169,53.4242],[10.1312,53.4236],[10.1384,53.4213],[10.1448,53.4164],[10.1545,53.4057],[10.1666,53.3988],[10.1776,53.3965],[10.1992,53.3986],[10.2194,53.3956],[10.2323,53.3951],[10.2385,53.3965],[10.2431,53.399],[10.2529,53.4133],[10.2597,53.4183],[10.2869,53.4253],[10.3025,53.4322],[10.308,53.4333],[10.3078,53.4347],[10.3178,53.4353],[10.3192,53.4377],[10.3145,53.4397],[10.3253,53.4498],[10.3123,53.4522],[10.3097,53.4431],[10.3004,53.4429],[10.2942,53.4482],[10.299,53.4506],[10.2978,53.4516],[10.2693,53.4641],[10.2719,53.4666],[10.2649,53.469],[10.2662,53.4731],[10.2644,53.4751],[10.26,53.4744],[10.2587,53.4762],[10.2599,53.477],[10.2556,53.4782],[10.2523,53.4772],[10.2487,53.4801],[10.2385,53.4825],[10.2374,53.4889],[10.2352,53.4891],[10.2345,53.4903],[10.2369,53.4963],[10.2329,53.4972],[10.229,53.4957],[10.2221,53.4964],[10.2231,53.497],[10.2223,53.4983],[10.2183,53.4992],[10.2185,53.5019],[10.2223,53.5032],[10.2239,53.5057],[10.2185,53.5077],[10.2192,53.5106],[10.2142,53.5129],[10.2155,53.5138],[10.2132,53.5142],[10.2104,53.5199],[10.2002,53.5142],[10.19,53.5134],[10.1895,53.5116],[10.1878,53.5115],[10.1624,53.5225],[10.1617,53.5261],[10.164,53.5292],[10.1631,53.5308],[10.1656,53.5346],[10.1686,53.5347],[10.1688,53.5374],[10.1602,53.5382],[10.1519,53.5355],[10.1547,53.5364],[10.1535,53.54],[10.1523,53.54],[10.1525,53.5432],[10.1515,53.5448],[10.1484,53.546],[10.1502,53.5487],[10.1593,53.5549],[10.1602,53.5583],[10.1587,53.5603],[10.1605,53.561],[10.1477,53.5643],[10.1481,53.5675],[10.1505,53.5691],[10.152,53.5727],[10.1525,53.5779],[10.1589,53.5811],[10.1619,53.5858],[10.1637,53.5858],[10.1644,53.5851],[10.1632,53.584],[10.1653,53.5823],[10.1873,53.584],[10.1872,53.5855],[10.1875,53.584],[10.1958,53.5846],[10.1984,53.5821],[10.2013,53.584],[10.1942,53.5912],[10.1918,53.5956],[10.1971,53.5993],[10.1953,53.6074],[10.1888,53.6131],[10.2058,53.6215],[10.2055,53.6238],[10.2079,53.6243],[10.2111,53.623],[10.2175,53.6261],[10.2181,53.6272],[10.2166,53.6285],[10.2162,53.6313],[10.222,53.6336],[10.2101,53.6367],[10.1996,53.6362],[10.1896,53.6384],[10.1954,53.6424],[10.1989,53.6467],[10.195,53.6526],[10.1964,53.6535],[10.1959,53.6548],[10.1871,53.6566],[10.1878,53.6586],[10.1838,53.6634],[10.1756,53.6633],[10.1728,53.6654],[10.1743,53.6668],[10.1728,53.6687],[10.1656,53.668],[10.1604,53.6711],[10.1588,53.6696],[10.1558,53.6699],[10.1551,53.6721],[10.1612,53.6713],[10.1563,53.6722],[10.1548,53.6742],[10.1549,53.6729],[10.1542,53.6761],[10.1537,53.6747],[10.1448,53.6761],[10.1438,53.6772],[10.1423,53.6765],[10.14,53.6804],[10.1434,53.6808],[10.1452,53.6797],[10.1519,53.6825],[10.1533,53.6844],[10.1526,53.6865],[10.1589,53.6903],[10.1603,53.7008],[10.1569,53.7032],[10.1569,53.7045],[10.1686,53.7087],[10.1663,53.7099],[10.1666,53.7112],[10.1723,53.7124],[10.1816,53.7089],[10.1917,53.7227],[10.1937,53.731],[10.1865,53.7311],[10.1724,53.7383],[10.1648,53.7394],[10.1618,53.737],[10.1616,53.7333],[10.1462,53.7283],[10.1428,53.7251],[10.1395,53.7257],[10.1276,53.7203],[10.1235,53.7171],[10.1211,53.7132],[10.1177,53.7138],[10.1158,53.7161],[10.112,53.7142],[10.102,53.7151],[10.1011,53.7167],[10.0988,53.7166],[10.0941,53.7193],[10.082,53.7204],[10.0769,53.7137],[10.0738,53.7118],[10.0705,53.7124],[10.0692,53.7109],[10.0729,53.7097],[10.0694,53.7062],[10.079,53.7039],[10.0761,53.7008],[10.0775,53.6994],[10.0732,53.6987],[10.071,53.6958],[10.0698,53.6964],[10.0658,53.6908],[10.0658,53.689],[10.0604,53.6883],[10.0616,53.6861],[10.0667,53.6859],[10.0672,53.6852],[10.0659,53.685],[10.0693,53.6795],[10.0515,53.6777],[10.0435,53.682],[9.9996,53.6815],[9.9924,53.6763],[9.9898,53.6693],[9.9911,53.6665],[9.9912,53.6582],[9.987,53.6554],[9.9875,53.6492],[9.9858,53.6482],[9.9759,53.6499],[9.9736,53.6481],[9.969,53.6503],[9.9655,53.6486],[9.9634,53.6501],[9.9595,53.6498],[9.9529,53.6516],[9.9497,53.6508],[9.9453,53.6529],[9.9375,53.6523],[9.9366,53.6533],[9.9353,53.652],[9.9252,53.6531],[9.9217,53.6541],[9.921,53.6555],[9.9175,53.6541],[9.9148,53.6549],[9.9139,53.6531],[9.9069,53.6525],[9.9045,53.6464],[9.9061,53.6452],[9.9057,53.6417],[9.8995,53.6401],[9.9004,53.6363],[9.8969,53.6349],[9.8964,53.6311],[9.8878,53.6272],[9.886,53.625],[9.8892,53.6229],[9.8792,53.6198],[9.8693,53.6136],[9.8681,53.6093],[9.8617,53.6072],[9.8576,53.6023],[9.8579,53.5994],[9.853,53.5974],[9.849,53.5978],[9.8445,53.5965],[9.8451,53.595],[9.8397,53.595],[9.84,53.5928],[9.8371,53.592],[9.8361,53.5901],[9.8363,53.5876],[9.8245,53.5842],[9.8158,53.5865],[9.8047,53.5937],[9.7975,53.5961],[9.7913,53.6013],[9.7897,53.604],[9.7972,53.6057],[9.799,53.6079],[9.7963,53.6103],[9.7912,53.6086],[9.7889,53.6112],[9.7707,53.616]],[[10.1163,53.7139],[10.1154,53.7147],[10.1163,53.7139]],[[10.169,53.6682],[10.1704,53.6688],[10.1684,53.6687],[10.169,53.6682]],[[8.5043,53.9288],[8.4979,53.932],[8.4911,53.9287],[8.488,53.9231],[8.4869,53.914],[8.4992,53.9125],[8.52,53.9134],[8.5222,53.9169],[8.5219,53.9205],[8.5164,53.924],[8.5043,53.9288]],[[8.4607,53.9585],[8.4582,53.9604],[8.4404,53.9649],[8.4359,53.9641],[8.427,53.9608],[8.4235,53.9577],[8.4228,53.9553],[8.4196,53.9548],[8.4155,53.9521],[8.4139,53.9504],[8.4133,53.9443],[8.4182,53.941],[8.4261,53.9412],[8.43,53.944],[8.4381,53.9469],[8.4439,53.9535],[8.4472,53.9554],[8.4607,53.9585]],[[9.7707,53.616],[9.7685,53.6226],[9.7713,53.6314],[9.77,53.6276],[9.7637,53.6274],[9.7635,53.6249],[9.76,53.6243],[9.7575,53.6171],[9.7536,53.613],[9.7592,53.611],[9.7554,53.6027],[9.7483,53.6038],[9.7438,53.5982],[9.7442,53.595],[9.7465,53.5926],[9.7456,53.589],[9.7428,53.5893],[9.7345,53.5825],[9.7374,53.5799],[9.7403,53.5813],[9.7425,53.578],[9.7375,53.5777],[9.736,53.5763],[9.7369,53.5752],[9.7347,53.5685],[9.7353,53.5665],[9.7301,53.5576],[9.7744,53.5543],[9.7723,53.5435],[9.7656,53.5411],[9.7713,53.5311],[9.7699,53.5295],[9.7742,53.5275],[9.7745,53.5248],[9.778,53.5251],[9.7813,53.5187],[9.7711,53.5219],[9.769,53.5199],[9.7636,53.5082],[9.7688,53.5053],[9.7815,53.5016],[9.7811,53.4998],[9.7846,53.5],[9.782,53.4923],[9.7928,53.4945],[9.8028,53.4938],[9.7985,53.4751],[9.8005,53.4754],[9.7998,53.4694],[9.8032,53.4693],[9.8035,53.4668],[9.8061,53.4674],[9.8075,53.4628],[9.8131,53.4625],[9.8365,53.4509],[9.8589,53.4341],[9.8618,53.4296],[9.8647,53.4306],[9.8647,53.432],[9.86,53.4363],[9.8607,53.4384],[9.8634,53.4404],[9.8669,53.4401],[9.8671,53.4434],[9.8689,53.4446],[9.8733,53.4422],[9.886,53.4501],[9.8887,53.4506],[9.8942,53.4558],[9.8968,53.4539],[9.9002,53.454],[9.898,53.455],[9.8988,53.458],[9.9011,53.4562],[9.9043,53.4567],[9.9097,53.4524],[9.9113,53.4496],[9.9172,53.4466],[9.9182,53.4448],[9.9169,53.4423],[9.919,53.4427],[9.9197,53.4395],[9.9229,53.4364],[9.9141,53.43],[9.9163,53.4248],[9.9107,53.4214],[9.9067,53.416],[9.9114,53.4151],[9.9108,53.4141],[9.9116,53.415],[9.9165,53.4141],[9.9247,53.4194],[9.9295,53.4201],[9.9299,53.4215],[9.9421,53.421],[9.947,53.4269],[9.9429,53.4283],[9.9438,53.4295],[9.9603,53.4266],[9.9601,53.425],[9.9683,53.4237],[9.9713,53.421],[9.9745,53.4206],[9.9759,53.4219],[9.9748,53.4198],[9.9765,53.4138],[9.9833,53.4146],[9.9826,53.4157],[9.987,53.4174],[9.9884,53.4206],[9.9928,53.4197],[9.9959,53.4259],[10.0007,53.4246],[10.0093,53.4295],[10.0174,53.4288],[10.0188,53.4293],[10.0178,53.4302],[10.0213,53.4306],[10.0292,53.4353],[10.0257,53.4383],[10.0146,53.442],[10.0222,53.4476],[10.0239,53.4458],[10.0323,53.4441],[10.0352,53.4469],[10.0366,53.446],[10.0453,53.4464],[10.0492,53.4498],[10.0412,53.4516],[10.0441,53.4549],[10.042,53.4566],[10.0436,53.459],[10.0516,53.4639],[10.0671,53.4559],[10.079,53.4539],[10.0833,53.4517],[10.0954,53.4421],[10.1043,53.4299],[10.1086,53.4268],[10.1169,53.4242],[10.1312,53.4236],[10.1384,53.4213],[10.1448,53.4164],[10.1545,53.4057],[10.1666,53.3988],[10.1776,53.3965],[10.1992,53.3986],[10.2194,53.3956],[10.2323,53.3951],[10.2385,53.3965],[10.2431,53.399],[10.2529,53.4133],[10.2597,53.4183],[10.2869,53.4253],[10.3025,53.4322],[10.308,53.4333],[10.3078,53.4347],[10.3178,53.4353],[10.3192,53.4377],[10.3145,53.4397],[10.3253,53.4498],[10.3123,53.4522],[10.3097,53.4431],[10.3004,53.4429],[10.2942,53.4482],[10.299,53.4506],[10.2978,53.4516],[10.2693,53.4641],[10.2719,53.4666],[10.2649,53.469],[10.2662,53.4731],[10.2644,53.4751],[10.26,53.4744],[10.2587,53.4762],[10.2599,53.477],[10.2556,53.4782],[10.2523,53.4772],[10.2487,53.4801],[10.2385,53.4825],[10.2374,53.4889],[10.2352,53.4891],[10.2345,53.4903],[10.2369,53.4963],[10.2329,53.4972],[10.229,53.4957],[10.2221,53.4964],[10.2231,53.497],[10.2223,53.4983],[10.2183,53.4992],[10.2185,53.5019],[10.2223,53.5032],[10.2239,53.5057],[10.2185,53.5077],[10.2192,53.5106],[10.2142,53.5129],[10.2155,53.5138],[10.2132,53.5142],[10.2104,53.5199],[10.2002,53.5142],[10.19,53.5134],[10.1895,53.5116],[10.1878,53.5115],[10.1624,53.5225],[10.1617,53.5261],[10.164,53.5292],[10.1631,53.5308],[10.1656,53.5346],[10.1686,53.5347],[10.1688,53.5374],[10.1602,53.5382],[10.1519,53.5355],[10.1547,53.5364],[10.1535,53.54],[10.1523,53.54],[10.1525,53.5432],[10.1515,53.5448],[10.1484,53.546],[10.1502,53.5487],[10.1593,53.5549],[10.1602,53.5583],[10.1587,53.5603],[10.1605,53.561],[10.1477,53.5643],[10.1481,53.5675],[10.1505,53.5691],[10.152,53.5727],[10.1525,53.5779],[10.1589,53.5811],[10.1619,53.5858],[10.1637,53.5858],[10.1644,53.5851],[10.1632,53.584],[10.1653,53.5823],[10.1873,53.584],[10.1872,53.5855],[10.1875,53.584],[10.1958,53.5846],[10.1984,53.5821],[10.2013,53.584],[10.1942,53.5912],[10.1918,53.5956],[10.1971,53.5993],[10.1953,53.6074],[10.1888,53.6131],[10.2058,53.6215],[10.2055,53.6238],[10.2079,53.6243],[10.2111,53.623],[10.2175,53.6261],[10.2181,53.6272],[10.2166,53.6285],[10.2162,53.6313],[10.222,53.6336],[10.2101,53.6367],[10.1996,53.6362],[10.1896,53.6384],[10.1954,53.6424],[10.1989,53.6467],[10.195,53.6526],[10.1964,53.6535],[10.1959,53.6548],[10.1871,53.6566],[10.1878,53.6586],[10.1838,53.6634],[10.1756,53.6633],[10.1728,53.6654],[10.1743,53.6668],[10.1728,53.6687],[10.1656,53.668],[10.1604,53.6711],[10.1588,53.6696],[10.1558,53.6699],[10.1551,53.6721],[10.1612,53.6713],[10.1563,53.6722],[10.1548,53.6742],[10.1549,53.6729],[10.1542,53.6761],[10.1537,53.6747],[10.1448,53.6761],[10.1438,53.6772],[10.1423,53.6765],[10.14,53.6804],[10.1434,53.6808],[10.1452,53.6797],[10.1519,53.6825],[10.1533,53.6844],[10.1526,53.6865],[10.1589,53.6903],[10.1603,53.7008],[10.1569,53.7032],[10.1569,53.7045],[10.1686,53.7087],[10.1663,53.7099],[10.1666,53.7112],[10.1723,53.7124],[10.1816,53.7089],[10.1917,53.7227],[10.1937,53.731],[10.1865,53.7311],[10.1724,53.7383],[10.1648,53.7394],[10.1618,53.737],[10.1616,53.7333],[10.1462,53.7283],[10.1428,53.7251],[10.1395,53.7257],[10.1276,53.7203],[10.1235,53.7171],[10.1211,53.7132],[10.1177,53.7138],[10.1158,53.7161],[10.112,53.7142],[10.102,53.7151],[10.1011,53.7167],[10.0988,53.7166],[10.0941,53.7193],[10.082,53.7204],[10.0769,53.7137],[10.0738,53.7118],[10.0705,53.7124],[10.0692,53.7109],[10.0729,53.7097],[10.0694,53.7062],[10.079,53.7039],[10.0761,53.7008],[10.0775,53.6994],[10.0732,53.6987],[10.071,53.6958],[10.0698,53.6964],[10.0658,53.6908],[10.0658,53.689],[10.0604,53.6883],[10.0616,53.6861],[10.0667,53.6859],[10.0672,53.6852],[10.0659,53.685],[10.0693,53.6795],[10.0515,53.6777],[10.0435,53.682],[9.9996,53.6815],[9.9924,53.6763],[9.9898,53.6693],[9.9911,53.6665],[9.9912,53.6582],[9.987,53.6554],[9.9875,53.6492],[9.9858,53.6482],[9.9759,53.6499],[9.9736,53.6481],[9.969,53.6503],[9.9655,53.6486],[9.9634,53.6501],[9.9595,53.6498],[9.9529,53.6516],[9.9497,53.6508],[9.9453,53.6529],[9.9375,53.6523],[9.9366,53.6533],[9.9353,53.652],[9.9252,53.6531],[9.9217,53.6541],[9.921,53.6555],[9.9175,53.6541],[9.9148,53.6549],[9.9139,53.6531],[9.9069,53.6525],[9.9045,53.6464],[9.9061,53.6452],[9.9057,53.6417],[9.8995,53.6401],[9.9004,53.6363],[9.8969,53.6349],[9.8964,53.6311],[9.8878,53.6272],[9.886,53.625],[9.8892,53.6229],[9.8792,53.6198],[9.8693,53.6136],[9.8681,53.6093],[9.8617,53.6072],[9.8576,53.6023],[9.8579,53.5994],[9.853,53.5974],[9.849,53.5978],[9.8445,53.5965],[9.8451,53.595],[9.8397,53.595],[9.84,53.5928],[9.8371,53.592],[9.8361,53.5901],[9.8363,53.5876],[9.8245,53.5842],[9.8158,53.5865],[9.8047,53.5937],[9.7975,53.5961],[9.7913,53.6013],[9.7897,53.604],[9.7972,53.6057],[9.799,53.6079],[9.7963,53.6103],[9.7912,53.6086],[9.7889,53.6112],[9.7707,53.616]],[[10.1163,53.7139],[10.1154,53.7147],[10.1163,53.7139]],[[10.169,53.6682],[10.1704,53.6688],[10.1684,53.6687],[10.169,53.6682]],[[8.5043,53.9288],[8.4979,53.932],[8.4911,53.9287],[8.488,53.9231],[8.4869,53.914],[8.4992,53.9125],[8.52,53.9134],[8.5222,53.9169],[8.5219,53.9205],[8.5164,53.924],[8.5043,53.9288]],[[8.4607,53.9585],[8.4582,53.9604],[8.4404,53.9649],[8.4359,53.9641],[8.427,53.9608],[8.4235,53.9577],[8.4228,53.9553],[8.4196,53.9548],[8.4155,53.9521],[8.4139,53.9504],[8.4133,53.9443],[8.4182,53.941],[8.4261,53.9412],[8.43,53.944],[8.4381,53.9469],[8.4439,53.9535],[8.4472,53.9554],[8.4607,53.9585]]]},"properties":{"name":"Hamburg boundary"}}]}